O3B FM5                 
1 39188U 13031A   19088.34869024 -.00000034  00000-0  00000-0 0  9997
2 39188   0.0555  24.6009 0002605 350.8959 344.5078  5.00116068105238
O3B FM4                 
1 39189U 13031B   19088.45012545 -.00000033  00000-0  00000-0 0  9997
2 39189   0.0469 355.5031 0002560  15.0943 349.4046  5.00115909105239
O3B FM2                 
1 39190U 13031C   19088.41512421 -.00000033  00000-0  00000-0 0  9993
2 39190   0.0484 349.4740 0007509 357.7315  12.7721  5.00115744105208
O3B PFM                 
1 39191U 13031D   19088.44932786 -.00000033  00000-0  00000-0 0  9997
2 39191   0.0502  17.6855 0006926 359.7423 342.5926  5.00113010105121
O3B FM3                 
1 40079U 14038A   19088.34981587 -.00000033  00000-0  00000-0 0  9994
2 40079   0.0488   4.5238 0001726  66.2386 289.2529  5.00116112 81307
O3B FM7                 
1 40080U 14038B   19088.49949985 -.00000033  00000-0  00000-0 0  9998
2 40080   0.0470   2.6979 0002513   5.1296 352.1731  5.00116472 86093
O3B FM6                 
1 40081U 14038C   19081.91910181 -.00000029  00000-0  00000-0 0  9990
2 40081   0.0479   3.4798 0002561 359.2330 357.2843  5.00115448 85738
O3B FM8                 
1 40082U 14038D   19088.36646556 -.00000033  00000-0  00000-0 0  9994
2 40082   0.0465   0.4112 0002546   7.4949 352.0946  5.00115116 86170
O3B FM10                
1 40348U 14083A   19088.39987931 -.00000033  00000-0  00000-0 0  9997
2 40348   0.0457  14.2997 0002500 354.2286 351.4725  5.00114395 78130
O3B FM11                
1 40349U 14083B   19086.81670663 -.00000033  00000-0  00000-0 0  9994
2 40349   0.0503  13.7913 0002623 337.2167   8.9837  5.00115938 78064
O3B FM12                
1 40350U 14083C   19088.48306951 -.00000033  00000-0  00000-0 0  9997
2 40350   0.0497  12.8919 0002703 351.5110 355.5961  5.00115651 78151
O3B FM9                 
1 40351U 14083D   19088.46598500 -.00000033  00000-0  00000-0 0  9999
2 40351   0.0515  13.9577 0002558 354.1358 351.9073  5.00114653 78162
DIAMOND RED             
1 42783U 17036U   19088.39295319  .00000976  00000-0  45659-4 0  9993
2 42783  97.3611 147.7736 0013151 149.7996 210.4001 15.22017381 97884
DIAMOND GREEN           
1 42785U 17036W   19088.39177128  .00000992  00000-0  46382-4 0  9994
2 42785  97.3614 147.7940 0013047 150.3203 209.8776 15.22016613 97955
DIAMOND BLUE            
1 42786U 17036X   19088.32502965  .00000974  00000-0  45598-4 0  9997
2 42786  97.3614 147.7277 0012867 150.6785 209.5176 15.22016145 97867
LEO VANTAGE 1           
1 43113U 18004C   19088.61482905 -.00000066  00000-0 -25023-4 0  9996
2 43113  99.4393 150.1107 0006030 136.2104 223.9521 13.69845027 61121
TINTIN A                
1 43216U 18020B   19088.59768631  .00001295  00000-0  63497-4 0  9998
2 43216  97.4549  97.4770 0011645 327.4725  32.5792 15.19871034 60741
TINTIN B                
1 43217U 18020C   19088.59158957  .00001290  00000-0  63179-4 0  9995
2 43217  97.4618  97.8612 0010835 325.3832  34.6697 15.19921875 60740
O3B FM15                
1 43231U 18024A   19088.33314155 -.00000034  00000-0  00000-0 0  9997
2 43231   0.0423  15.5337 0002742 354.1326 350.3356  5.00115471 19253
O3B FM16                
1 43232U 18024B   19088.38270992 -.00000033  00000-0  00000-0 0  9992
2 43232   0.0387  18.3457 0003083 347.1677 354.4866  5.00116058 19261
O3B FM14                
1 43233U 18024C   19088.43221444 -.00000033  00000-0  00000-0 0  9997
2 43233   0.0372  18.5565 0003090 350.8760 350.5700  5.00115553 19263
O3B FM13                
1 43234U 18024D   19088.44932248 -.00000033  00000-0  00000-0 0  9990
2 43234   0.0285   0.6742 0005299  11.6102 347.7251  5.00113094 19257
